start=new Date('2021-12-30T00:00:00.000Z').valueOf();
sats=[{"BSTAR":"0.00009419100000","CENTER_NAME":"EARTH","OBJECT_ID":"2021-041P","TLE_LINE1":"1 48566U 21041P   21363.89148770  .00001122  00000-0  94191-4 0  9990","MEAN_ELEMENT_THEORY":"SGP4","REV_AT_EPOCH":"3433","PERIOD":"95.592","RA_OF_ASC_NODE":"173.6420","LAUNCH_DATE":"2021-05-15","SITE":"AFETR","APOAPSIS":"548.886","CLASSIFICATION_TYPE":"U","SEMIMAJOR_AXIS":"6925.333","INCLINATION":"53.0549","MEAN_ANOMALY":"272.7116","DECAY_DATE":null,"ARG_OF_PERICENTER":"87.4152","OBJECT_NAME":"STARLINK-2214","ELEMENT_SET_NO":"999","COUNTRY_CODE":"US","MEAN_MOTION_DDOT":"0.0000000000000","NORAD_CAT_ID":"48566","RCS_SIZE":"LARGE","MEAN_MOTION_DOT":"0.00001122","TIME_SYSTEM":"UTC","MEAN_MOTION":"15.06405165","EPHEMERIS_TYPE":"0","FILE":"3255236","TLE_LINE2":"2 48566  53.0549 173.6420 0002438  87.4152 272.7116 15.06405165 34336","OBJECT_TYPE":"PAYLOAD","REF_FRAME":"TEME","ECCENTRICITY":"0.00024380","GP_ID":"192747128","EPOCH":"2021-12-29T21:23:44.537280","PERIAPSIS":"545.509"},{"ELEMENT_SET_NO":"999","COUNTRY_CODE":"US","MEAN_MOTION_DDOT":"0.0000000000000","RCS_SIZE":"LARGE","NORAD_CAT_ID":"48567","MEAN_MOTION":"15.06392449","EPHEMERIS_TYPE":"0","MEAN_MOTION_DOT":"-0.00000460","TIME_SYSTEM":"UTC","MEAN_ANOMALY":"267.9487","ARG_OF_PERICENTER":"92.1774","DECAY_DATE":null,"OBJECT_NAME":"STARLINK-2215","ECCENTRICITY":"0.00023770","GP_ID":"192745908","EPOCH":"2021-12-29T18:29:57.323040","PERIAPSIS":"545.591","FILE":"3255236","TLE_LINE2":"2 48567  53.0539 174.1723 0002377  92.1774 267.9487 15.06392449 34318","OBJECT_TYPE":"PAYLOAD","REF_FRAME":"TEME","RA_OF_ASC_NODE":"174.1723","SITE":"AFETR","LAUNCH_DATE":"2021-05-15","CENTER_NAME":"EARTH","BSTAR":"-0.00001196500000","TLE_LINE1":"1 48567U 21041Q   21363.77080235 -.00000460  00000-0 -11965-4 0  9993","OBJECT_ID":"2021-041Q","REV_AT_EPOCH":"3431","PERIOD":"95.593","MEAN_ELEMENT_THEORY":"SGP4","APOAPSIS":"548.883","CLASSIFICATION_TYPE":"U","INCLINATION":"53.0539","SEMIMAJOR_AXIS":"6925.372"},{"INCLINATION":"53.0548","SEMIMAJOR_AXIS":"6925.328","APOAPSIS":"548.821","CLASSIFICATION_TYPE":"U","TLE_LINE1":"1 48568U 21041R   21363.84912427  .00001769  00000-0  13763-3 0  9997","OBJECT_ID":"2021-041R","PERIOD":"95.592","REV_AT_EPOCH":"3446","MEAN_ELEMENT_THEORY":"SGP4","BSTAR":"0.00013763000000","CENTER_NAME":"EARTH","LAUNCH_DATE":"2021-05-15","SITE":"AFETR","RA_OF_ASC_NODE":"163.8200","OBJECT_TYPE":"PAYLOAD","REF_FRAME":"TEME","FILE":"3255236","TLE_LINE2":"2 48568  53.0548 163.8200 0002352  94.9064 265.2193 15.06406862 34465","PERIAPSIS":"545.564","ECCENTRICITY":"0.00023520","GP_ID":"192745659","EPOCH":"2021-12-29T20:22:44.336928","OBJECT_NAME":"STARLINK-2217","MEAN_ANOMALY":"265.2193","ARG_OF_PERICENTER":"94.9064","DECAY_DATE":null,"NORAD_CAT_ID":"48568","RCS_SIZE":"LARGE","MEAN_MOTION":"15.06406862","EPHEMERIS_TYPE":"0","TIME_SYSTEM":"UTC","MEAN_MOTION_DOT":"0.00001769","ELEMENT_SET_NO":"999","COUNTRY_CODE":"US","MEAN_MOTION_DDOT":"0.0000000000000"},{"TIME_SYSTEM":"UTC","MEAN_MOTION_DOT":"0.00001633","MEAN_MOTION":"15.06403589","EPHEMERIS_TYPE":"0","RCS_SIZE":"LARGE","NORAD_CAT_ID":"48569","MEAN_MOTION_DDOT":"0.0000000000000","COUNTRY_CODE":"US","ELEMENT_SET_NO":"999","OBJECT_NAME":"STARLINK-2219","DECAY_DATE":null,"ARG_OF_PERICENTER":"93.2941","MEAN_ANOMALY":"266.8325","PERIAPSIS":"545.525","GP_ID":"192746396","EPOCH":"2021-12-29T20:59:54.367584","ECCENTRICITY":"0.00024230","REF_FRAME":"TEME","OBJECT_TYPE":"PAYLOAD","FILE":"3255236","TLE_LINE2":"2 48569  53.0544 163.7247 0002423  93.2941 266.8325 15.06403589 34475","SITE":"AFETR","LAUNCH_DATE":"2021-05-15","RA_OF_ASC_NODE":"163.7247","MEAN_ELEMENT_THEORY":"SGP4","REV_AT_EPOCH":"3447","PERIOD":"95.592","OBJECT_ID":"2021-041S","TLE_LINE1":"1 48569U 21041S   21363.87493481  .00001633  00000-0  12854-3 0  9995","CENTER_NAME":"EARTH","BSTAR":"0.00012854000000","SEMIMAJOR_AXIS":"6925.338","INCLINATION":"53.0544","CLASSIFICATION_TYPE":"U","APOAPSIS":"548.881"},{"CENTER_NAME":"EARTH","BSTAR":"0.00016358000000","REV_AT_EPOCH":"3432","PERIOD":"95.592","MEAN_ELEMENT_THEORY":"SGP4","TLE_LINE1":"1 48570U 21041T   21363.86295591  .00002155  00000-0  16358-3 0  9991","OBJECT_ID":"2021-041T","RA_OF_ASC_NODE":"173.7608","SITE":"AFETR","LAUNCH_DATE":"2021-05-15","CLASSIFICATION_TYPE":"U","APOAPSIS":"548.936","INCLINATION":"53.0528","SEMIMAJOR_AXIS":"6925.350","ARG_OF_PERICENTER":"86.1118","DECAY_DATE":null,"MEAN_ANOMALY":"274.0155","OBJECT_NAME":"STARLINK-2220","MEAN_MOTION_DDOT":"0.0000000000000","ELEMENT_SET_NO":"999","COUNTRY_CODE":"US","MEAN_MOTION":"15.06399426","EPHEMERIS_TYPE":"0","MEAN_MOTION_DOT":"0.00002155","TIME_SYSTEM":"UTC","NORAD_CAT_ID":"48570","RCS_SIZE":"LARGE","FILE":"3255236","TLE_LINE2":"2 48570  53.0528 173.7608 0002484  86.1118 274.0155 15.06399426 34325","REF_FRAME":"TEME","OBJECT_TYPE":"PAYLOAD","EPOCH":"2021-12-29T20:42:39.390624","GP_ID":"192746641","ECCENTRICITY":"0.00024840","PERIAPSIS":"545.495"},{"MEAN_MOTION_DDOT":"0.0000000000000","COUNTRY_CODE":"US","ELEMENT_SET_NO":"999","MEAN_MOTION_DOT":"-0.00000483","TIME_SYSTEM":"UTC","EPHEMERIS_TYPE":"0","MEAN_MOTION":"15.06399527","RCS_SIZE":"LARGE","NORAD_CAT_ID":"48571","DECAY_DATE":null,"ARG_OF_PERICENTER":"86.2916","MEAN_ANOMALY":"273.8345","OBJECT_NAME":"STARLINK-2221","EPOCH":"2021-12-29T19:17:43.274112","GP_ID":"192745414","ECCENTRICITY":"0.00023780","PERIAPSIS":"545.568","FILE":"3255236","TLE_LINE2":"2 48571  53.0544 174.0404 0002378  86.2916 273.8345 15.06399527 34321","REF_FRAME":"TEME","OBJECT_TYPE":"PAYLOAD","RA_OF_ASC_NODE":"174.0404","SITE":"AFETR","LAUNCH_DATE":"2021-05-15","CENTER_NAME":"EARTH","BSTAR":"-0.00001348200000","MEAN_ELEMENT_THEORY":"SGP4","REV_AT_EPOCH":"3432","PERIOD":"95.592","OBJECT_ID":"2021-041U","TLE_LINE1":"1 48571U 21041U   21363.80397308 -.00000483  00000-0 -13482-4 0  9995","CLASSIFICATION_TYPE":"U","APOAPSIS":"548.862","SEMIMAJOR_AXIS":"6925.350","INCLINATION":"53.0544"},{"FILE":"3255236","TLE_LINE2":"2 48572  53.0545 173.7455 0002408  91.4461 268.6804 15.06410437 34339","REF_FRAME":"TEME","OBJECT_TYPE":"PAYLOAD","GP_ID":"192746154","EPOCH":"2021-12-29T20:47:57.238944","ECCENTRICITY":"0.00024080","PERIAPSIS":"545.514","ARG_OF_PERICENTER":"91.4461","DECAY_DATE":null,"MEAN_ANOMALY":"268.6804","OBJECT_NAME":"STARLINK-2222","MEAN_MOTION_DDOT":"0.0000000000000","COUNTRY_CODE":"US","ELEMENT_SET_NO":"999","MEAN_MOTION":"15.06410437","EPHEMERIS_TYPE":"0","MEAN_MOTION_DOT":"0.00001521","TIME_SYSTEM":"UTC","NORAD_CAT_ID":"48572","RCS_SIZE":"LARGE","CLASSIFICATION_TYPE":"U","APOAPSIS":"548.849","INCLINATION":"53.0545","SEMIMAJOR_AXIS":"6925.317","CENTER_NAME":"EARTH","BSTAR":"0.00012097000000","REV_AT_EPOCH":"3433","PERIOD":"95.591","MEAN_ELEMENT_THEORY":"SGP4","TLE_LINE1":"1 48572U 21041V   21363.86663471  .00001521  00000-0  12097-3 0  9991","OBJECT_ID":"2021-041V","RA_OF_ASC_NODE":"173.7455","LAUNCH_DATE":"2021-05-15","SITE":"AFETR"},{"NORAD_CAT_ID":"48573","RCS_SIZE":"LARGE","MEAN_MOTION":"15.06402944","EPHEMERIS_TYPE":"0","TIME_SYSTEM":"UTC","MEAN_MOTION_DOT":"0.00001619","ELEMENT_SET_NO":"999","COUNTRY_CODE":"US","MEAN_MOTION_DDOT":"0.0000000000000","OBJECT_NAME":"STARLINK-2224","MEAN_ANOMALY":"272.7417","ARG_OF_PERICENTER":"87.3839","DECAY_DATE":null,"PERIAPSIS":"545.584","ECCENTRICITY":"0.00023400","GP_ID":"192746885","EPOCH":"2021-12-29T20:17:25.673856","OBJECT_TYPE":"PAYLOAD","REF_FRAME":"TEME","TLE_LINE2":"2 48573  53.0523 163.8397 0002340  87.3839 272.7417 15.06402944 34463","FILE":"3255236","SITE":"AFETR","LAUNCH_DATE":"2021-05-15","RA_OF_ASC_NODE":"163.8397","TLE_LINE1":"1 48573U 21041W   21363.84543604  .00001619  00000-0  12754-3 0  9993","OBJECT_ID":"2021-041W","PERIOD":"95.592","REV_AT_EPOCH":"3446","MEAN_ELEMENT_THEORY":"SGP4","BSTAR":"0.00012754000000","CENTER_NAME":"EARTH","INCLINATION":"53.0523","SEMIMAJOR_AXIS":"6925.340","APOAPSIS":"548.825","CLASSIFICATION_TYPE":"U"},{"INCLINATION":"53.0458","SEMIMAJOR_AXIS":"6925.377","APOAPSIS":"548.436","CLASSIFICATION_TYPE":"U","LAUNCH_DATE":"2021-05-15","SITE":"AFETR","RA_OF_ASC_NODE":"133.5504","TLE_LINE1":"1 48574U 21041X   21363.91667824  .00001012  00000-0  86833-4 0  9990","OBJECT_ID":"2021-041X","REV_AT_EPOCH":"358","PERIOD":"95.593","MEAN_ELEMENT_THEORY":"SGP4","BSTAR":"0.00008683300000","CENTER_NAME":"EARTH","PERIAPSIS":"546.049","ECCENTRICITY":"0.00017230","EPOCH":"2021-12-29T22:00:00.999936","GP_ID":"192747129","OBJECT_TYPE":"PAYLOAD","REF_FRAME":"TEME","FILE":"3255236","TLE_LINE2":"2 48574  53.0458 133.5504 0001723  97.2602 139.5805 15.06390573  3581","RCS_SIZE":"LARGE","NORAD_CAT_ID":"48574","MEAN_MOTION":"15.06390573","EPHEMERIS_TYPE":"0","TIME_SYSTEM":"UTC","MEAN_MOTION_DOT":"0.00001012","COUNTRY_CODE":"US","ELEMENT_SET_NO":"999","MEAN_MOTION_DDOT":"0.0000000000000","OBJECT_NAME":"STARLINK-2225","MEAN_ANOMALY":"139.5805","ARG_OF_PERICENTER":"97.2602","DECAY_DATE":null},{"PERIAPSIS":"545.843","ECCENTRICITY":"0.00020050","GP_ID":"192745909","EPOCH":"2021-12-29T22:00:00.999936","OBJECT_TYPE":"PAYLOAD","REF_FRAME":"TEME","TLE_LINE2":"2 48575  53.0573 123.4966 0002005  43.1069 228.7555 15.06394059  3633","FILE":"3255236","NORAD_CAT_ID":"48575","RCS_SIZE":"LARGE","MEAN_MOTION_DOT":"-0.00012485","TIME_SYSTEM":"UTC","MEAN_MOTION":"15.06394059","EPHEMERIS_TYPE":"0","COUNTRY_CODE":"US","ELEMENT_SET_NO":"999","MEAN_MOTION_DDOT":"0.0000000000000","OBJECT_NAME":"STARLINK-2227","MEAN_ANOMALY":"228.7555","DECAY_DATE":null,"ARG_OF_PERICENTER":"43.1069","SEMIMAJOR_AXIS":"6925.367","INCLINATION":"53.0573","APOAPSIS":"548.620","CLASSIFICATION_TYPE":"U","SITE":"AFETR","LAUNCH_DATE":"2021-05-15","RA_OF_ASC_NODE":"123.4966","OBJECT_ID":"2021-041Y","TLE_LINE1":"1 48575U 21041Y   21363.91667824 -.00012485  00000-0 -82082-3 0  9990","MEAN_ELEMENT_THEORY":"SGP4","PERIOD":"95.593","REV_AT_EPOCH":"363","BSTAR":"-0.00082082000000","CENTER_NAME":"EARTH"}];
